start=new Date('2022-11-06T00:00:00.000Z').valueOf();
sats=[{"GP_ID":"217016545","MEAN_MOTION":"15.06380918","RCS_SIZE":"LARGE","TIME_SYSTEM":"UTC","MEAN_ANOMALY":"305.8609","RA_OF_ASC_NODE":"228.0914","MEAN_ELEMENT_THEORY":"SGP4","SEMIMAJOR_AXIS":"6925.407","CENTER_NAME":"EARTH","ARG_OF_PERICENTER":"54.2618","OBJECT_NAME":"STARLINK-2467","BSTAR":"-0.00023748000000","TLE_LINE2":"2 48126  53.0538 228.0914 0002560  54.2618 305.8609 15.06380918 88831","ECCENTRICITY":"0.00025600","MEAN_MOTION_DDOT":"0.0000000000000","REV_AT_EPOCH":"8883","LAUNCH_DATE":"2021-04-07","FILE":"3646512","COUNTRY_CODE":"US","REF_FRAME":"TEME","PERIAPSIS":"545.499","OBJECT_TYPE":"PAYLOAD","OBJECT_ID":"2021-027AL","APOAPSIS":"549.045","TLE_LINE1":"1 48126U 21027AL  22309.76362869 -.00003816  00000-0 -23748-3 0  9993","SITE":"AFETR","CLASSIFICATION_TYPE":"U","EPHEMERIS_TYPE":"0","ELEMENT_SET_NO":"999","MEAN_MOTION_DOT":"-0.00003816","PERIOD":"95.593","EPOCH":"2022-11-05T18:19:37.518816","DECAY_DATE":null,"NORAD_CAT_ID":"48126","INCLINATION":"53.0538"},{"OBJECT_TYPE":"PAYLOAD","OBJECT_ID":"2021-027AM","LAUNCH_DATE":"2021-04-07","FILE":"3646263","REF_FRAME":"TEME","COUNTRY_CODE":"US","PERIAPSIS":"545.799","ARG_OF_PERICENTER":"52.5879","TLE_LINE2":"2 48127  53.0533 249.0265 0002118  52.5879 307.5303 15.06382863 88110","BSTAR":"-0.00037231000000","OBJECT_NAME":"STARLINK-2468","ECCENTRICITY":"0.00021180","REV_AT_EPOCH":"8811","MEAN_MOTION_DDOT":"0.0000000000000","MEAN_MOTION":"15.06382863","GP_ID":"216990467","TIME_SYSTEM":"UTC","RCS_SIZE":"LARGE","MEAN_ELEMENT_THEORY":"SGP4","RA_OF_ASC_NODE":"249.0265","MEAN_ANOMALY":"307.5303","CENTER_NAME":"EARTH","SEMIMAJOR_AXIS":"6925.401","EPOCH":"2022-11-05T13:19:43.931712","NORAD_CAT_ID":"48127","DECAY_DATE":null,"INCLINATION":"53.0533","ELEMENT_SET_NO":"999","EPHEMERIS_TYPE":"0","MEAN_MOTION_DOT":"-0.00005820","PERIOD":"95.593","CLASSIFICATION_TYPE":"U","SITE":"AFETR","TLE_LINE1":"1 48127U 21027AM  22309.55536958 -.00005820  00000-0 -37231-3 0  9992","APOAPSIS":"548.733"},{"MEAN_MOTION":"15.06388154","GP_ID":"217017547","RCS_SIZE":"LARGE","TIME_SYSTEM":"UTC","RA_OF_ASC_NODE":"178.5996","MEAN_ELEMENT_THEORY":"SGP4","MEAN_ANOMALY":"274.1068","CENTER_NAME":"EARTH","SEMIMAJOR_AXIS":"6925.385","ARG_OF_PERICENTER":"86.0121","BSTAR":"-0.00028459000000","TLE_LINE2":"2 48128  53.0542 178.5996 0001752  86.0121 274.1068 15.06388154 89503","OBJECT_NAME":"STARLINK-2469","ECCENTRICITY":"0.00017520","REV_AT_EPOCH":"8950","MEAN_MOTION_DDOT":"0.0000000000000","LAUNCH_DATE":"2021-04-07","FILE":"3646512","REF_FRAME":"TEME","COUNTRY_CODE":"US","PERIAPSIS":"546.037","OBJECT_TYPE":"PAYLOAD","OBJECT_ID":"2021-027AN","TLE_LINE1":"1 48128U 21027AN  22309.66872640 -.00004517  00000-0 -28459-3 0  9990","SITE":"AFETR","APOAPSIS":"548.463","CLASSIFICATION_TYPE":"U","ELEMENT_SET_NO":"999","EPHEMERIS_TYPE":"0","MEAN_MOTION_DOT":"-0.00004517","PERIOD":"95.593","EPOCH":"2022-11-05T16:02:57.960960","NORAD_CAT_ID":"48128","DECAY_DATE":null,"INCLINATION":"53.0542"},{"FILE":"3646264","LAUNCH_DATE":"2021-04-07","PERIAPSIS":"545.962","REF_FRAME":"TEME","COUNTRY_CODE":"US","OBJECT_TYPE":"PAYLOAD","OBJECT_ID":"2021-027AP","RCS_SIZE":"LARGE","TIME_SYSTEM":"UTC","GP_ID":"216990501","MEAN_MOTION":"15.06381723","CENTER_NAME":"EARTH","SEMIMAJOR_AXIS":"6925.405","MEAN_ELEMENT_THEORY":"SGP4","RA_OF_ASC_NODE":"247.8664","MEAN_ANOMALY":"309.5276","BSTAR":"-0.00012617000000","TLE_LINE2":"2 48129  53.0539 247.8664 0001888  50.5880 309.5276 15.06381723 88159","OBJECT_NAME":"STARLINK-2471","ARG_OF_PERICENTER":"50.5880","REV_AT_EPOCH":"8815","MEAN_MOTION_DDOT":"0.0000000000000","ECCENTRICITY":"0.00018880","MEAN_MOTION_DOT":"-0.00002160","ELEMENT_SET_NO":"999","EPHEMERIS_TYPE":"0","PERIOD":"95.593","NORAD_CAT_ID":"48129","DECAY_DATE":null,"EPOCH":"2022-11-05T19:31:17.387616","INCLINATION":"53.0539","SITE":"AFETR","TLE_LINE1":"1 48129U 21027AP  22309.81339569 -.00002160  00000-0 -12617-3 0  9997","APOAPSIS":"548.577","CLASSIFICATION_TYPE":"U"},{"TIME_SYSTEM":"UTC","RCS_SIZE":"LARGE","MEAN_MOTION":"15.06398438","GP_ID":"216979036","SEMIMAJOR_AXIS":"6925.353","CENTER_NAME":"EARTH","MEAN_ANOMALY":"306.9887","RA_OF_ASC_NODE":"255.8949","MEAN_ELEMENT_THEORY":"SGP4","OBJECT_NAME":"STARLINK-2472","TLE_LINE2":"2 48130  53.0546 255.8949 0001828  53.1269 306.9887 15.06398438 87988","BSTAR":"0.00004616800000","ARG_OF_PERICENTER":"53.1269","MEAN_MOTION_DDOT":"0.0000000000000","REV_AT_EPOCH":"8798","ECCENTRICITY":"0.00018280","FILE":"3645761","LAUNCH_DATE":"2021-04-07","PERIAPSIS":"545.952","COUNTRY_CODE":"US","REF_FRAME":"TEME","OBJECT_TYPE":"PAYLOAD","OBJECT_ID":"2021-027AQ","SITE":"AFETR","TLE_LINE1":"1 48130U 21027AQ  22309.13928681  .00000406  00000-0  46168-4 0  9991","APOAPSIS":"548.484","CLASSIFICATION_TYPE":"U","MEAN_MOTION_DOT":"0.00000406","EPHEMERIS_TYPE":"0","ELEMENT_SET_NO":"999","PERIOD":"95.592","DECAY_DATE":null,"NORAD_CAT_ID":"48130","EPOCH":"2022-11-05T03:20:34.380384","INCLINATION":"53.0546"},{"ARG_OF_PERICENTER":"51.1196","OBJECT_NAME":"STARLINK-2473","TLE_LINE2":"2 48131  53.0550 230.7851 0001882  51.1196 308.9961 15.06392939 88330","BSTAR":"0.00007915700000","ECCENTRICITY":"0.00018820","MEAN_MOTION_DDOT":"0.0000000000000","REV_AT_EPOCH":"8833","MEAN_MOTION":"15.06392939","GP_ID":"216979027","RCS_SIZE":"LARGE","TIME_SYSTEM":"UTC","MEAN_ANOMALY":"308.9961","RA_OF_ASC_NODE":"230.7851","MEAN_ELEMENT_THEORY":"SGP4","SEMIMAJOR_AXIS":"6925.370","CENTER_NAME":"EARTH","OBJECT_TYPE":"PAYLOAD","OBJECT_ID":"2021-027AR","LAUNCH_DATE":"2021-04-07","FILE":"3645761","COUNTRY_CODE":"US","REF_FRAME":"TEME","PERIAPSIS":"545.932","CLASSIFICATION_TYPE":"U","TLE_LINE1":"1 48131U 21027AR  22309.15912749  .00000897  00000-0  79157-4 0  9990","SITE":"AFETR","APOAPSIS":"548.539","EPOCH":"2022-11-05T03:49:08.615136","DECAY_DATE":null,"NORAD_CAT_ID":"48131","INCLINATION":"53.0550","EPHEMERIS_TYPE":"0","ELEMENT_SET_NO":"999","MEAN_MOTION_DOT":"0.00000897","PERIOD":"95.593"},{"FILE":"3646286","LAUNCH_DATE":"2021-04-07","PERIAPSIS":"545.963","REF_FRAME":"TEME","COUNTRY_CODE":"US","OBJECT_TYPE":"PAYLOAD","OBJECT_ID":"2021-027AS","RCS_SIZE":"LARGE","TIME_SYSTEM":"UTC","GP_ID":"216990725","MEAN_MOTION":"15.06383788","CENTER_NAME":"EARTH","SEMIMAJOR_AXIS":"6925.398","MEAN_ELEMENT_THEORY":"SGP4","RA_OF_ASC_NODE":"249.1006","MEAN_ANOMALY":"309.1203","TLE_LINE2":"2 48132  53.0541 249.1006 0001877  50.9953 309.1203 15.06383788 88119","BSTAR":"-0.00007533600000","OBJECT_NAME":"STARLINK-2474","ARG_OF_PERICENTER":"50.9953","REV_AT_EPOCH":"8811","MEAN_MOTION_DDOT":"0.0000000000000","ECCENTRICITY":"0.00018770","MEAN_MOTION_DOT":"-0.00001403","EPHEMERIS_TYPE":"0","ELEMENT_SET_NO":"999","PERIOD":"95.593","NORAD_CAT_ID":"48132","DECAY_DATE":null,"EPOCH":"2022-11-05T12:53:12.151680","INCLINATION":"53.0541","TLE_LINE1":"1 48132U 21027AS  22309.53694620 -.00001403  00000-0 -75336-4 0  9999","SITE":"AFETR","APOAPSIS":"548.563","CLASSIFICATION_TYPE":"U"},{"FILE":"3646286","LAUNCH_DATE":"2021-04-07","PERIAPSIS":"546.049","REF_FRAME":"TEME","COUNTRY_CODE":"US","OBJECT_TYPE":"PAYLOAD","OBJECT_ID":"2021-027AT","RCS_SIZE":"LARGE","TIME_SYSTEM":"UTC","GP_ID":"216990214","MEAN_MOTION":"15.06384398","CENTER_NAME":"EARTH","SEMIMAJOR_AXIS":"6925.396","MEAN_ELEMENT_THEORY":"SGP4","RA_OF_ASC_NODE":"247.9266","MEAN_ANOMALY":"308.5440","TLE_LINE2":"2 48133  53.0546 247.9266 0001750  51.5706 308.5440 15.06384398 88150","BSTAR":"-0.00011678000000","OBJECT_NAME":"STARLINK-2475","ARG_OF_PERICENTER":"51.5706","REV_AT_EPOCH":"8815","MEAN_MOTION_DDOT":"0.0000000000000","ECCENTRICITY":"0.00017500","MEAN_MOTION_DOT":"-0.00002020","ELEMENT_SET_NO":"999","EPHEMERIS_TYPE":"0","PERIOD":"95.593","NORAD_CAT_ID":"48133","DECAY_DATE":null,"EPOCH":"2022-11-05T19:10:03.758304","INCLINATION":"53.0546","SITE":"AFETR","TLE_LINE1":"1 48133U 21027AT  22309.79865461 -.00002020  00000-0 -11678-3 0  9995","APOAPSIS":"548.473","CLASSIFICATION_TYPE":"U"},{"PERIAPSIS":"545.909","REF_FRAME":"TEME","COUNTRY_CODE":"US","FILE":"3645109","LAUNCH_DATE":"2021-04-07","OBJECT_ID":"2021-027AU","OBJECT_TYPE":"PAYLOAD","CENTER_NAME":"EARTH","SEMIMAJOR_AXIS":"6925.351","RA_OF_ASC_NODE":"250.0838","MEAN_ELEMENT_THEORY":"SGP4","MEAN_ANOMALY":"310.2383","RCS_SIZE":"LARGE","TIME_SYSTEM":"UTC","MEAN_MOTION":"15.06399045","GP_ID":"216961807","REV_AT_EPOCH":"8847","MEAN_MOTION_DDOT":"0.0000000000000","ECCENTRICITY":"0.00018880","TLE_LINE2":"2 48134  53.0541 250.0838 0001888  49.8772 310.2383 15.06399045 88477","BSTAR":"0.00004827300000","OBJECT_NAME":"STARLINK-2476","ARG_OF_PERICENTER":"49.8772","PERIOD":"95.592","MEAN_MOTION_DOT":"0.00000437","ELEMENT_SET_NO":"999","EPHEMERIS_TYPE":"0","INCLINATION":"53.0541","NORAD_CAT_ID":"48134","DECAY_DATE":null,"EPOCH":"2022-11-05T07:40:02.205408","TLE_LINE1":"1 48134U 21027AU  22309.31946997  .00000437  00000-0  48273-4 0  9998","SITE":"AFETR","APOAPSIS":"548.524","CLASSIFICATION_TYPE":"U"},{"INCLINATION":"53.0564","NORAD_CAT_ID":"48135","DECAY_DATE":null,"EPOCH":"2022-11-05T02:55:25.672224","PERIOD":"95.592","MEAN_MOTION_DOT":"0.00001736","ELEMENT_SET_NO":"999","EPHEMERIS_TYPE":"0","CLASSIFICATION_TYPE":"U","APOAPSIS":"548.552","TLE_LINE1":"1 48135U 21027AV  22309.12182491  .00001736  00000-0  13547-3 0  9997","SITE":"AFETR","OBJECT_ID":"2021-027AV","OBJECT_TYPE":"PAYLOAD","PERIAPSIS":"545.909","REF_FRAME":"TEME","COUNTRY_CODE":"US","FILE":"3645778","LAUNCH_DATE":"2021-04-07","REV_AT_EPOCH":"8797","MEAN_MOTION_DDOT":"0.0000000000000","ECCENTRICITY":"0.00019080","TLE_LINE2":"2 48135  53.0564 256.1285 0001908  56.7273 303.3899 15.06394563 87971","BSTAR":"0.00013547000000","OBJECT_NAME":"STARLINK-2478","ARG_OF_PERICENTER":"56.7273","CENTER_NAME":"EARTH","SEMIMAJOR_AXIS":"6925.365","RA_OF_ASC_NODE":"256.1285","MEAN_ELEMENT_THEORY":"SGP4","MEAN_ANOMALY":"303.3899","TIME_SYSTEM":"UTC","RCS_SIZE":"LARGE","GP_ID":"216979735","MEAN_MOTION":"15.06394563"}];
